{
  "type": "FeatureCollection",
  "features": [
    {
      "type": "Feature",
      "properties": {
        "Id": 0,
        "Campamento": "Campamento Bahía",
        "Este": 660523.707086,
        "Norte": 9692317.68596
      },
      "geometry": {
        "type": "Point",
        "coordinates": [
          -73.555875,
          -2.782788
        ]
      }
    },
    {
      "type": "Feature",
      "properties": {
        "Id": 0,
        "Campamento": "Campamento Mazán",
        "Este": 643041.816457,
        "Norte": 9668644.59267
      },
      "geometry": {
        "type": "Point",
        "coordinates": [
          -73.712879,
          -2.997089
        ]
      }
    },
    {
      "type": "Feature",
      "properties": {
        "Id": 0,
        "Campamento": "Campamento Bravo",
        "Este": 631092.892698,
        "Norte": 9732537.61482
      },
      "geometry": {
        "type": "Point",
        "coordinates": [
          -73.820941,
          -2.419286
        ]
      }
    }
  ]
}